OBJECT_NAME,OBJECT_ID,EPOCH,MEAN_MOTION,ECCENTRICITY,INCLINATION,RA_OF_ASC_NODE,ARG_OF_PERICENTER,MEAN_ANOMALY,EPHEMERIS_TYPE,CLASSIFICATION_TYPE,NORAD_CAT_ID,ELEMENT_SET_NO,REV_AT_EPOCH,BSTAR,MEAN_MOTION_DOT,MEAN_MOTION_DDOT
OSCAR 7 (AO-7),1974-089B,2026-06-26T07:24:28.408896,12.53698198,.00126426,101.9899,190.6503,113.2400,258.3057,0,U,7530,999,36166,.98449544E-4,-.31E-6,0
PHASE 3B (AO-10),1983-058B,2026-06-23T16:21:57.137184,2.05872578,.60085647,25.9176,218.4895,117.4551,314.9460,0,U,14129,999,29562,0,-.85E-6,0
UOSAT 2 (UO-11),1984-021B,2026-06-26T03:33:34.260480,14.90804114,.0008417,97.8061,142.6230,144.7362,215.4415,0,U,14781,999,25846,.12216865E-3,.1146E-4,0
LUSAT (LO-19),1990-005G,2026-06-25T23:20:51.355968,14.34125571,.0011632,98.8847,199.0205,174.9940,185.1362,0,U,20442,999,90365,.54892312E-4,.107E-5,0
EYESAT A (AO-27),1993-061C,2026-06-26T03:50:14.763840,14.30944439,.00095071,98.6877,244.5701,76.6745,283.5497,0,U,22825,999,70828,.49164047E-4,.85E-6,0
ITAMSAT (IO-26),1993-061D,2026-06-25T17:12:47.039040,14.31371492,.00099061,98.6824,244.0460,62.8375,297.3817,0,U,22826,999,70853,.48754711E-4,.85E-6,0
RADIO ROSTO (RS15),1994-085A,2026-06-25T23:38:14.483040,11.27583444,.01562389,64.8184,288.9880,2.2471,357.9123,0,U,23439,999,29689,-.35814804E-3,-.55E-6,0
JAS-2 (FO-29),1996-046B,2026-06-26T02:37:19.280352,13.53274757,.03509059,98.5233,24.7588,73.3487,290.5866,0,U,24278,999,47437,.17983338E-4,-.15E-6,0
TECHSAT 1B (GO-32),1998-043D,2026-06-26T06:23:21.236064,14.24430022,.00015108,99.0071,170.2540,145.7294,214.3982,0,U,25397,999,45262,.46672656E-4,.61E-6,0
ISS (ZARYA),1998-067A,2026-06-26T03:43:15.671136,15.49434804,.00043588,51.6325,255.7018,233.1468,126.9121,0,U,25544,999,57314,.17696555E-3,.9461E-4,0
PCSAT (NO-44),2001-043C,2026-06-26T05:44:27.420864,14.31958810,.00060396,67.0493,220.8594,265.0853,94.9559,0,U,26931,999,29174,.62568381E-4,.85E-6,0
SAUDISAT 1C (SO-50),2002-058C,2026-06-26T06:12:23.852160,14.83064844,.00750481,64.5520,100.9188,260.7782,98.4830,0,U,27607,999,26580,.12776643E-3,.937E-5,0
CUTE-1 (CO-55),2003-031E,2026-06-25T23:00:28.348416,14.24340671,.00100671,98.6736,185.4073,153.3060,206.8639,0,U,27844,999,19292,.13912556E-3,.278E-5,0
CUBESAT XI-IV (CO-57),2003-031J,2026-06-25T22:50:11.464512,14.23625133,.00095908,98.6767,185.1059,171.2746,188.8601,0,U,27848,999,19262,.12262206E-3,.236E-5,0
MOZHAETS 4 (RS22),2003-042A,2026-06-26T07:45:59.053824,14.73482566,.0010021,98.3474,1.9406,236.8659,247.3406,0,U,27939,999,21689,.18532033E-3,.115E-4,0
CUBESAT XI-V,2005-043F,2026-06-26T05:39:13.895136,14.72654434,.0014267,98.2992,333.0476,171.8750,188.2691,0,U,28895,999,10308,.23138605E-3,.1423E-4,0
CUTE-1.7+APD II (CO-65),2008-021C,2026-06-26T06:20:16.459296,15.09534115,.00088532,97.8274,158.8717,11.3283,348.8143,0,U,32785,999,98656,.32854789E-3,.5208E-4,0
SEEDS II (CO-66),2008-021J,2026-06-25T22:45:21.318624,15.33033686,.00004268,97.7517,175.2655,222.9381,137.1827,0,U,32791,999,98863,.67552337E-3,.21509E-3,0
YUBILEINY (RS30),2008-025A,2026-06-26T06:33:03.788928,12.43180220,.0018583,82.5047,349.7875,293.0308,66.8812,0,U,32953,999,82082,.7249171E-3,.111E-5,0
KKS-1 (KISEKI),2009-002H,2026-06-26T02:16:14.500992,14.83144643,.00063728,98.1187,99.6780,260.5600,99.4893,0,U,33499,999,93751,.1586198E-3,.1238E-4,0
SWISSCUBE,2009-051B,2026-06-25T17:17:57.094080,14.62496515,.00065814,98.4029,84.7576,174.6664,185.4608,0,U,35932,999,89040,.19486624E-3,.938E-5,0
BEESAT-1,2009-051C,2026-06-25T17:37:56.312256,14.61733092,.00047793,98.3958,84.3893,186.3683,173.7458,0,U,35933,999,89043,.1664679E-3,.781E-5,0
ITUPSAT1,2009-051E,2026-06-26T06:44:51.831744,14.60453195,.00067259,98.4042,84.1263,201.3740,158.7180,0,U,35935,999,89006,.16205227E-3,.737E-5,0
XIWANG-1 (HOPE-1),2009-072B,2026-06-26T05:04:57.481824,13.16441661,.00070292,100.4023,130.8997,209.2737,150.7982,0,U,36122,999,79419,.10834545E-2,.369E-5,0
O/OREOS (USA 219),2010-062C,2026-06-26T02:28:20.717184,14.93779064,.00128935,71.9714,60.1433,44.0808,316.1388,0,U,37224,999,11797,.2245455E-3,.2323E-4,0
JUGNU,2011-058B,2026-06-25T13:35:34.564992,14.13778751,.0018497,19.9600,257.5233,168.3639,315.1616,0,U,37839,999,76021,.71365E-4,.404E-5,0
SRMSAT,2011-058D,2026-06-26T05:16:44.949216,14.11577318,.00117153,19.9735,4.7963,303.6491,228.3381,0,U,37841,999,75909,.56732331E-4,.369E-5,0
STRAND-1,2013-009E,2026-06-26T05:54:20.580192,14.37168321,.00082308,98.3924,357.2575,196.0425,164.0502,0,U,39090,999,69836,.10993968E-3,.284E-5,0
ZACUBE-1 (TSHEPISOSAT),2013-066B,2026-06-26T04:56:12.194016,15.01234415,.00420471,97.8049,139.5889,216.9401,142.8926,0,U,39417,999,68208,.26694238E-3,.3428E-4,0
GOMX-1,2013-066Q,2026-06-26T05:48:51.237216,14.69488586,.0129843,97.6486,17.1335,48.8122,312.4196,0,U,39430,999,67124,.27403319E-3,.1798E-4,0
